{"type": "FeatureCollection", "features": [ {"type": "Feature", "properties": {"norad_id": 45358, "name": "COSMOS 2545 (760)", "group": "glo-ops", "lat": 40.67751090710607, "lon": -17.144421526957963, "alt_km": 19151.78477861413, "timestamp": "2025-12-22T08:58:20.622491+00:00", "meta": {"OBJECT_NAME": "COSMOS 2545 (760)", "OBJECT_ID": "2020-018A", "EPOCH": "2025-12-20T21:44:12.708096", "MEAN_MOTION": 2.13102664, "ECCENTRICITY": 0.00114269, "INCLINATION": 64.4648, "RA_OF_ASC_NODE": 318.6832, "ARG_OF_PERICENTER": 250.0027, "MEAN_ANOMALY": 109.8672, "EPHEMERIS_TYPE": 0, "CLASSIFICATION_TYPE": "U", "NORAD_CAT_ID": 45358, "ELEMENT_SET_NO": 999, "REV_AT_EPOCH": 4486, "BSTAR": 0, "MEAN_MOTION_DOT": -5e-07, "MEAN_MOTION_DDOT": 0}, "tle": {"line1": "1 45358U 20018A   25354.90570264 -.00000050  00000+0  00000+0 0  9992", "line2": "2 45358  64.4648 318.6832 0011426 250.0027 109.8672  2.13102664 44860"}}, "geometry": {"type": "Point", "coordinates": [-17.144421526957963, 40.67751090710607]}}, {"type": "Feature", "properties": {"norad_id": 46805, "name": "COSMOS 2547 (705K)", "group": "glo-ops", "lat": -63.41458361449257, "lon": 90.20876273523892, "alt_km": 19123.69380115149, "timestamp": "2025-12-22T08:58:20.622502+00:00", "meta": {"OBJECT_NAME": "COSMOS 2547 (705K)", "OBJECT_ID": "2020-075A", "EPOCH": "2025-12-22T00:46:38.592768", "MEAN_MOTION": 2.1310024, "ECCENTRICITY": 0.000611, "INCLINATION": 64.5968, "RA_OF_ASC_NODE": 198.3861, "ARG_OF_PERICENTER": 227.635, "MEAN_ANOMALY": 132.3817, "EPHEMERIS_TYPE": 0, "CLASSIFICATION_TYPE": "U", "NORAD_CAT_ID": 46805, "ELEMENT_SET_NO": 999, "REV_AT_EPOCH": 4013, "BSTAR": 0, "MEAN_MOTION_DOT": 9.6e-07, "MEAN_MOTION_DDOT": 0}, "tle": {"line1": "1 46805U 20075A   25356.03239112  .00000096  00000+0  00000+0 0  9992", "line2": "2 46805  64.5968 198.3861 0006110 227.6350 132.3817  2.13100240 40138"}}, "geometry": {"type": "Point", "coordinates": [90.20876273523892, -63.41458361449257]}}, {"type": "Feature", "properties": {"norad_id": 52984, "name": "COSMOS 2557 (706K)", "group": "glo-ops", "lat": 39.61241180969216, "lon": 117.33764367684037, "alt_km": 19153.038053914093, "timestamp": "2025-12-22T08:58:20.622513+00:00", "meta": {"OBJECT_NAME": "COSMOS 2557 (706K)", "OBJECT_ID": "2022-075A", "EPOCH": "2025-12-21T06:13:04.908576", "MEAN_MOTION": 2.13102077, "ECCENTRICITY": 0.0013538, "INCLINATION": 64.405, "RA_OF_ASC_NODE": 320.7521, "ARG_OF_PERICENTER": 278.2868, "MEAN_ANOMALY": 81.5534, "EPHEMERIS_TYPE": 0, "CLASSIFICATION_TYPE": "U", "NORAD_CAT_ID": 52984, "ELEMENT_SET_NO": 999, "REV_AT_EPOCH": 2692, "BSTAR": 0, "MEAN_MOTION_DOT": -4.9e-07, "MEAN_MOTION_DDOT": 0}, "tle": {"line1": "1 52984U 22075A   25355.25908459 -.00000049  00000+0  00000+0 0  9998", "line2": "2 52984  64.4050 320.7521 0013538 278.2868  81.5534  2.13102077 26928"}}, "geometry": {"type": "Point", "coordinates": [117.33764367684037, 39.61241180969216]}}, {"type": "Feature", "properties": {"norad_id": 54031, "name": "COSMOS 2559 (707K)", "group": "glo-ops", "lat": -64.08103916372913, "lon": -119.94529638364241, "alt_km": 19132.5018114822, "timestamp": "2025-12-22T08:58:20.622524+00:00", "meta": {"OBJECT_NAME": "COSMOS 2559 (707K)", "OBJECT_ID": "2022-130A", "EPOCH": "2025-12-22T00:24:12.513600", "MEAN_MOTION": 2.13101332, "ECCENTRICITY": 0.0011568, "INCLINATION": 64.3769, "RA_OF_ASC_NODE": 320.8148, "ARG_OF_PERICENTER": 191.8908, "MEAN_ANOMALY": 168.0776, "EPHEMERIS_TYPE": 0, "CLASSIFICATION_TYPE": "U", "NORAD_CAT_ID": 54031, "ELEMENT_SET_NO": 999, "REV_AT_EPOCH": 2491, "BSTAR": 0, "MEAN_MOTION_DOT": -4.4e-07, "MEAN_MOTION_DDOT": 0}, "tle": {"line1": "1 54031U 22130A   25356.01681150 -.00000044  00000+0  00000+0 0  9991", "line2": "2 54031  64.3769 320.8148 0011568 191.8908 168.0776  2.13101332 24910"}}, "geometry": {"type": "Point", "coordinates": [-119.94529638364241, -64.08103916372913]}}, {"type": "Feature", "properties": {"norad_id": 54377, "name": "COSMOS 2564 (761)", "group": "glo-ops", "lat": 29.863781165601804, "lon": -145.6762173519226, "alt_km": 19147.99582656298, "timestamp": "2025-12-22T08:58:20.622534+00:00", "meta": {"OBJECT_NAME": "COSMOS 2564 (761)", "OBJECT_ID": "2022-161A", "EPOCH": "2025-12-21T20:39:47.771712", "MEAN_MOTION": 2.13102053, "ECCENTRICITY": 0.0008544, "INCLINATION": 64.7387, "RA_OF_ASC_NODE": 198.5958, "ARG_OF_PERICENTER": 203.7268, "MEAN_ANOMALY": 156.3034, "EPHEMERIS_TYPE": 0, "CLASSIFICATION_TYPE": "U", "NORAD_CAT_ID": 54377, "ELEMENT_SET_NO": 999, "REV_AT_EPOCH": 2385, "BSTAR": 0, "MEAN_MOTION_DOT": 9.6e-07, "MEAN_MOTION_DDOT": 0}, "tle": {"line1": "1 54377U 22161A   25355.86096958  .00000096  00000+0  00000+0 0  9992", "line2": "2 54377  64.7387 198.5958 0008544 203.7268 156.3034  2.13102053 23854"}}, "geometry": {"type": "Point", "coordinates": [-145.6762173519226, 29.863781165601804]}}, {"type": "Feature", "properties": {"norad_id": 57517, "name": "COSMOS 2569 (703K)", "group": "glo-ops", "lat": 20.988526153577553, "lon": 88.80189637700725, "alt_km": 19130.481942937342, "timestamp": "2025-12-22T08:58:20.622545+00:00", "meta": {"OBJECT_NAME": "COSMOS 2569 (703K)", "OBJECT_ID": "2023-114A", "EPOCH": "2025-12-20T11:11:48.591168", "MEAN_MOTION": 2.13103983, "ECCENTRICITY": 0.00107986, "INCLINATION": 65.1981, "RA_OF_ASC_NODE": 78.6524, "ARG_OF_PERICENTER": 287.0398, "MEAN_ANOMALY": 72.8764, "EPHEMERIS_TYPE": 0, "CLASSIFICATION_TYPE": "U", "NORAD_CAT_ID": 57517, "ELEMENT_SET_NO": 999, "REV_AT_EPOCH": 1845, "BSTAR": 0, "MEAN_MOTION_DOT": -1.8e-07, "MEAN_MOTION_DDOT": 0}, "tle": {"line1": "1 57517U 23114A   25354.46653462 -.00000018  00000+0  00000+0 0  9999", "line2": "2 57517  65.1981  78.6524 0010798 287.0398  72.8764  2.13103983 18453"}}, "geometry": {"type": "Point", "coordinates": [88.80189637700725, 20.988526153577553]}}, {"type": "Feature", "properties": {"norad_id": 63130, "name": "COSMOS 2584 (704K)", "group": "glo-ops", "lat": 58.33337481655241, "lon": -150.2691006358556, "alt_km": 19129.832496799936, "timestamp": "2025-12-22T08:58:20.622556+00:00", "meta": {"OBJECT_NAME": "COSMOS 2584 (704K)", "OBJECT_ID": "2025-042A", "EPOCH": "2025-12-21T07:00:00.966240", "MEAN_MOTION": 2.13103074, "ECCENTRICITY": 0.00077364, "INCLINATION": 64.9804, "RA_OF_ASC_NODE": 78.8547, "ARG_OF_PERICENTER": 219.241, "MEAN_ANOMALY": 140.7412, "EPHEMERIS_TYPE": 0, "CLASSIFICATION_TYPE": "U", "NORAD_CAT_ID": 63130, "ELEMENT_SET_NO": 999, "REV_AT_EPOCH": 625, "BSTAR": 0, "MEAN_MOTION_DOT": -1.1e-07, "MEAN_MOTION_DDOT": 0}, "tle": {"line1": "1 63130U 25042A   25355.29167785 -.00000011  00000+0  00000+0 0  9992", "line2": "2 63130  64.9804  78.8547 0007736 219.2410 140.7412  2.13103074  6250"}}, "geometry": {"type": "Point", "coordinates": [-150.2691006358556, 58.33337481655241]}}, {"type": "Feature", "properties": {"norad_id": 65590, "name": "COSMOS 2596 (708K)", "group": "glo-ops", "lat": -42.613157709786954, "lon": 166.852555314469, "alt_km": 19128.1819758235, "timestamp": "2025-12-22T08:58:20.622567+00:00", "meta": {"OBJECT_NAME": "COSMOS 2596 (708K)", "OBJECT_ID": "2025-206B", "EPOCH": "2025-12-22T03:59:43.719936", "MEAN_MOTION": 2.1310041, "ECCENTRICITY": 0.0014089, "INCLINATION": 64.7392, "RA_OF_ASC_NODE": 321.1476, "ARG_OF_PERICENTER": 307.2643, "MEAN_ANOMALY": 122.2256, "EPHEMERIS_TYPE": 0, "CLASSIFICATION_TYPE": "U", "NORAD_CAT_ID": 65590, "ELEMENT_SET_NO": 999, "REV_AT_EPOCH": 214, "BSTAR": 0, "MEAN_MOTION_DOT": -4.3e-07, "MEAN_MOTION_DDOT": 0}, "tle": {"line1": "1 65590U 25206B   25356.16647824 -.00000043  00000+0  00000+0 0  9995", "line2": "2 65590  64.7392 321.1476 0014089 307.2643 122.2256  2.13100410  2148"}}, "geometry": {"type": "Point", "coordinates": [166.852555314469, -42.613157709786954]}}]}